NORAD_CAT_ID,OBJECT_NAME,OBJECT_TYPE,EPOCH,MEAN_MOTION,ECCENTRICITY,INCLINATION,RA_OF_ASC_NODE,ARG_OF_PERICENTER,MEAN_ANOMALY,BSTAR,MEAN_MOTION_DOT,MEAN_MOTION_DDOT,TLE_LINE0,TLE_LINE1,TLE_LINE2,SEMIMAJOR_AXIS,PERIOD,APOGEE,PERIGEE,DECAYED
53552.0,STARLINK-4495,PAYLOAD,2023-08-12 10:54:55,15.08838817,9e-05,53.2182,325.0041,108.261,251.8481,2.6451e-05,1.33e-06,0.0,0 STARLINK-4495,1 53552U 22101AB  23224.45481021  .00000133  00000-0  26451-4 0  9993,2 53552  53.2182 325.0041 0000900 108.2610 251.8481 15.08838817 54361,6917.884,95.438,540.372,539.126,0.0
53552.0,STARLINK-4495,PAYLOAD,2023-08-13 13:56:28,15.08842918,9.41e-05,53.2192,319.9482,100.9054,259.2044,0.00012771,1.746e-05,0.0,0 STARLINK-4495,1 53552U 22101AB  23225.58089084  .00001746  00000-0  12771-3 0  9991,2 53552  53.2192 319.9482 0000941 100.9054 259.2044 15.08842918 54532,6917.871,95.437,540.387,539.085,0.0
53552.0,STARLINK-4495,PAYLOAD,2023-08-13 23:28:48,15.08836623,9.47e-05,53.2188,318.1635,93.585,266.525,0.000168,2.387e-05,0.0,0 STARLINK-4495,1 53552U 22101AB  23225.97833499  .00002387  00000-0  16800-3 0  9990,2 53552  53.2188 318.1635 0000947  93.5850 266.5250 15.08836623 54597,6917.891,95.438,540.411,539.101,0.0
53552.0,STARLINK-4495,PAYLOAD,2023-08-15 10:27:16,15.08846044,0.000108,53.2189,311.6219,83.7435,276.368,0.00012611,1.72e-05,0.0,0 STARLINK-4495,1 53552U 22101AB  23227.43560979  .00001720  00000-0  12611-3 0  9999,2 53552  53.2189 311.6219 0001080  83.7435 276.3680 15.08846044 54812,6917.862,95.437,540.474,538.98,0.0
53552.0,STARLINK-4495,PAYLOAD,2023-08-16 10:18:04,15.0883893,0.0001136,53.2185,307.1618,83.2714,276.8407,5.8569e-05,6.44e-06,0.0,0 STARLINK-4495,1 53552U 22101AB  23228.42921422  .00000644  00000-0  58569-4 0  9990,2 53552  53.2185 307.1618 0001136  83.2714 276.8407 15.08838930 54961,6917.884,95.438,540.535,538.963,0.0
53552.0,STARLINK-4495,PAYLOAD,2023-08-18 09:59:38,15.08835075,0.0001102,53.2177,298.2399,97.9763,262.1354,2.8701e-05,1.69e-06,0.0,0 STARLINK-4495,1 53552U 22101AB  23230.41641712  .00000169  00000-0  28701-4 0  9990,2 53552  53.2177 298.2399 0001102  97.9763 262.1354 15.08835075 55267,6917.895,95.438,540.523,538.998,0.0
53552.0,STARLINK-4495,PAYLOAD,2023-08-19 13:01:11,15.08839748,0.0001254,53.2186,293.1859,104.8745,255.2386,5.5587e-05,5.97e-06,0.0,0 STARLINK-4495,1 53552U 22101AB  23231.54249518  .00000597  00000-0  55587-4 0  9990,2 53552  53.2186 293.1859 0001254 104.8745 255.2386 15.08839748 55436,6917.881,95.438,540.614,538.879,0.0
53552.0,STARLINK-4495,PAYLOAD,2023-08-20 11:16:36,15.08834951,0.0001103,53.2181,289.0221,94.1546,265.9573,3.8627e-05,3.27e-06,0.0,0 STARLINK-4495,1 53552U 22101AB  23232.46986204  .00000327  00000-0  38627-4 0  9999,2 53552  53.2181 289.0221 0001103  94.1546 265.9573 15.08834951 55573,6917.896,95.438,540.524,538.998,0.0
53552.0,STARLINK-4495,PAYLOAD,2023-08-21 11:07:22,15.08846388,0.0001126,53.2172,284.5608,83.8994,276.2126,7.9695e-05,9.81e-06,0.0,0 STARLINK-4495,1 53552U 22101AB  23233.46345480  .00000981  00000-0  79695-4 0  9991,2 53552  53.2172 284.5608 0001126  83.8994 276.2126 15.08846388 55722,6917.861,95.437,540.505,538.947,0.0
53552.0,STARLINK-4495,PAYLOAD,2023-08-22 03:01:14,15.08835203,0.0001163,53.2167,281.587,80.9097,279.2027,3.9443e-05,3.4e-06,0.0,0 STARLINK-4495,1 53552U 22101AB  23234.12586371  .00000340  00000-0  39443-4 0  9997,2 53552  53.2167 281.5870 0001163  80.9097 279.2027 15.08835203 55825,6917.895,95.438,540.565,538.956,0.0
53552.0,STARLINK-4495,PAYLOAD,2023-08-24 12:15:07,15.08842781,0.0001242,53.2162,270.881,90.6443,269.4691,7.5378e-05,9.12e-06,0.0,0 STARLINK-4495,1 53552U 22101AB  23236.51049791  .00000912  00000-0  75378-4 0  9994,2 53552  53.2162 270.8810 0001242  90.6443 269.4691 15.08842781 56835,6917.872,95.437,540.596,538.878,0.0
53552.0,STARLINK-4495,PAYLOAD,2023-08-25 08:55:07,15.08841418,0.0001388,53.2166,267.015,101.1627,258.9521,3.5192e-05,2.72e-06,0.0,0 STARLINK-4495,1 53552U 22101AB  23237.37161924  .00000272  00000-0  35192-4 0  9991,2 53552  53.2166 267.0150 0001388 101.1627 258.9521 15.08841418 56311,6917.876,95.437,540.701,538.781,0.0
53552.0,STARLINK-4495,PAYLOAD,2023-08-26 08:45:55,15.08837962,0.0001427,53.2166,262.5546,102.5036,257.6116,1.0754e-05,-1.17e-06,0.0,0 STARLINK-4495,1 53552U 22101AB  23238.36522279 -.00000117  00000-0  10754-4 0  9991,2 53552  53.2166 262.5546 0001427 102.5036 257.6116 15.08837962 57117,6917.887,95.438,540.739,538.764,0.0
53552.0,STARLINK-4495,PAYLOAD,2023-08-27 05:25:56,15.08835264,0.0001453,53.2167,258.6889,102.7236,257.3918,1.0911e-05,-1.14e-06,0.0,0 STARLINK-4495,1 53552U 22101AB  23239.22634634 -.00000114  00000-0  10911-4 0  9998,2 53552  53.2167 258.6889 0001453 102.7236 257.3918 15.08835264 57241,6917.895,95.438,540.765,538.755,0.0
53552.0,STARLINK-4495,PAYLOAD,2023-08-28 02:05:57,15.08837063,0.0001402,53.2162,254.8227,100.0221,260.093,5.1233e-05,5.27e-06,0.0,0 STARLINK-4495,1 53552U 22101AB  23240.08746600  .00000527  00000-0  51233-4 0  9990,2 53552  53.2162 254.8227 0001402 100.0221 260.0930 15.08837063 56725,6917.889,95.438,540.724,538.784,0.0
53552.0,STARLINK-4495,PAYLOAD,2023-08-28 17:59:48,15.08839468,0.0001385,53.2164,251.8489,85.6391,274.4759,6.8475e-05,8.02e-06,0.0,0 STARLINK-4495,1 53552U 22101AB  23240.74986531  .00000802  00000-0  68475-4 0  9994,2 53552  53.2164 251.8489 0001385  85.6391 274.4759 15.08839468 57472,6917.882,95.438,540.705,538.789,0.0
53552.0,STARLINK-4495,PAYLOAD,2023-08-29 09:53:39,15.08838264,0.0001446,53.2165,248.8753,84.8113,275.3044,5.7975e-05,6.35e-06,0.0,0 STARLINK-4495,1 53552U 22101AB  23241.41226796  .00000635  00000-0  57975-4 0  9996,2 53552  53.2165 248.8753 0001446  84.8113 275.3044 15.08838264 56923,6917.886,95.438,540.751,538.75,0.0
53552.0,STARLINK-4495,PAYLOAD,2023-08-30 17:41:22,15.0884273,0.0001301,53.2157,242.9284,94.8039,265.3102,1.8574e-05,8e-08,0.0,0 STARLINK-4495,1 53552U 22101AB  23242.73706556  .00000008  00000-0  18574-4 0  9995,2 53552  53.2157 242.9284 0001301  94.8039 265.3102 15.08842730 57777,6917.872,95.437,540.637,538.837,0.0
53552.0,STARLINK-4495,PAYLOAD,2023-08-31 00:02:55,15.08837785,0.0001398,53.2158,241.739,88.4731,271.6422,5.5358e-05,5.93e-06,0.0,0 STARLINK-4495,1 53552U 22101AB  23243.00202794  .00000593  00000-0  55358-4 0  9991,2 53552  53.2158 241.7390 0001398  88.4731 271.6422 15.08837785 57169,6917.887,95.438,540.719,538.785,0.0
53552.0,STARLINK-4495,PAYLOAD,2023-08-31 09:35:13,15.0884752,0.0001132,53.2169,239.9543,92.4504,267.6618,0.00010132,1.325e-05,0.0,0 STARLINK-4495,1 53552U 22101AB  23243.39945984  .00001325  00000-0  10132-3 0  9992,2 53552  53.2169 239.9543 0001132  92.4504 267.6618 15.08847520 57226,6917.857,95.437,540.506,538.939,0.0
53552.0,STARLINK-4495,PAYLOAD,2023-08-31 23:53:42,15.08838265,0.0001463,53.2156,237.2783,90.595,269.521,2.4098e-05,9.6e-07,0.0,0 STARLINK-4495,1 53552U 22101AB  23243.99562888  .00000096  00000-0  24098-4 0  9997,2 53552  53.2156 237.2783 0001463  90.5950 269.5210 15.08838265 57315,6917.886,95.438,540.763,538.739,0.0
53552.0,STARLINK-4495,PAYLOAD,2023-09-01 09:26:00,15.08843755,0.0001195,53.2165,235.4941,95.9671,264.1458,9.0003e-05,1.145e-05,0.0,0 STARLINK-4495,1 53552U 22101AB  23244.39306330  .00001145  00000-0  90003-4 0  9995,2 53552  53.2165 235.4941 0001195  95.9671 264.1458 15.08843755 58026,6917.869,95.437,540.561,538.907,0.0
53552.0,STARLINK-4495,PAYLOAD,2023-09-01 23:44:29,15.08837888,0.0001474,53.2149,232.8175,94.318,265.7981,3.1217e-05,2.09e-06,0.0,0 STARLINK-4495,1 53552U 22101AB  23244.98922953  .00000209  00000-0  31217-4 0  9997,2 53552  53.2149 232.8175 0001474  94.3180 265.7981 15.08837888 57461,6917.887,95.438,540.772,538.732,0.0
53552.0,STARLINK-4495,PAYLOAD,2023-09-02 09:16:48,15.08840148,0.0001579,53.2155,231.0336,97.2026,262.9145,4.0012e-05,3.49e-06,0.0,0 STARLINK-4495,1 53552U 22101AB  23245.38666809  .00000349  00000-0  40012-4 0  9995,2 53552  53.2155 231.0336 0001579  97.2026 262.9145 15.08840148 58178,6917.88,95.438,540.837,538.653,0.0
53552.0,STARLINK-4495,PAYLOAD,2023-09-02 15:38:21,15.08834017,0.0001531,53.2151,229.8443,93.2895,266.8273,8.5797e-06,-1.51e-06,0.0,0 STARLINK-4495,1 53552U 22101AB  23245.65163350 -.00000151  00000-0  85797-5 0  9990,2 53552  53.2151 229.8443 0001531  93.2895 266.8273 15.08834017 58214,6917.899,95.438,540.823,538.705,0.0
53552.0,STARLINK-4495,PAYLOAD,2023-09-03 07:32:12,15.08839792,0.0001412,53.216,226.8713,97.8987,262.2166,5.0861e-05,5.22e-06,0.0,0 STARLINK-4495,1 53552U 22101AB  23246.31403003  .00000522  00000-0  50861-4 0  9990,2 53552  53.2160 226.8713 0001412  97.8987 262.2166 15.08839792 57665,6917.881,95.438,540.723,538.769,0.0
53552.0,STARLINK-4495,PAYLOAD,2023-09-03 23:26:04,15.0883177,0.0001431,53.2167,223.8968,96.326,263.7895,-3.7519e-05,-8.85e-06,0.0,0 STARLINK-4495,1 53552U 22101AB  23246.97644017 -.00000885  00000-0 -37519-4 0  9993,2 53552  53.2167 223.8968 0001431  96.3260 263.7895 15.08831770 57764,6917.906,95.438,540.76,538.781,0.0
53552.0,STARLINK-4495,PAYLOAD,2023-09-04 08:58:23,15.08833019,0.0001384,53.2169,222.1132,96.5407,263.5742,-1.3489e-05,-5.03e-06,0.0,0 STARLINK-4495,1 53552U 22101AB  23247.37388049 -.00000503  00000-0 -13489-4 0  9995,2 53552  53.2169 222.1132 0001384  96.5407 263.5742 15.08833019 58479,6917.902,95.438,540.724,538.809,0.0
53552.0,STARLINK-4495,PAYLOAD,2023-09-04 23:16:51,15.0883597,0.0001269,53.217,219.4369,95.4921,264.6216,7.0208e-05,8.3e-06,0.0,0 STARLINK-4495,1 53552U 22101AB  23247.97003813  .00000830  00000-0  70208-4 0  9997,2 53552  53.2170 219.4369 0001269  95.4921 264.6216 15.08835970 57917,6917.893,95.438,540.636,538.88,0.0
53552.0,STARLINK-4495,PAYLOAD,2023-09-05 07:13:46,15.08843684,0.0001441,53.2169,217.95,100.3121,259.8033,3.7912e-05,3.16e-06,0.0,0 STARLINK-4495,1 53552U 22101AB  23248.30123482  .00000316  00000-0  37912-4 0  9994,2 53552  53.2169 217.9500 0001441 100.3121 259.8033 15.08843684 58617,6917.869,95.437,540.731,538.737,0.0
